start=new Date('2022-01-11T00:00:00.000Z').valueOf();
sats=[{"EPOCH":"2022-01-10T20:45:07.668576","LAUNCH_DATE":"2020-01-29","COUNTRY_CODE":"US","APOAPSIS":"546.833","ELEMENT_SET_NO":"999","NORAD_CAT_ID":"45068","MEAN_ELEMENT_THEORY":"SGP4","ECCENTRICITY":"0.00017170","DECAY_DATE":null,"SEMIMAJOR_AXIS":"6923.780","REV_AT_EPOCH":"10781","EPHEMERIS_TYPE":"0","TIME_SYSTEM":"UTC","RA_OF_ASC_NODE":"244.8913","MEAN_MOTION":"15.06912076","CENTER_NAME":"EARTH","ARG_OF_PERICENTER":"98.1180","CLASSIFICATION_TYPE":"U","TLE_LINE1":"1 45068U 20006AA  22010.86467209  .00016281  00000-0  10942-2 0  9994","BSTAR":"0.00109420000000","OBJECT_NAME":"STARLINK-1161","RCS_SIZE":"LARGE","MEAN_MOTION_DDOT":"0.0000000000000","FILE":"3269118","REF_FRAME":"TEME","OBJECT_TYPE":"PAYLOAD","OBJECT_ID":"2020-006AA","PERIAPSIS":"544.456","INCLINATION":"53.0540","MEAN_MOTION_DOT":"0.00016281","TLE_LINE2":"2 45068  53.0540 244.8913 0001717  98.1180 262.0004 15.06912076107814","PERIOD":"95.560","MEAN_ANOMALY":"262.0004","GP_ID":"193624105","SITE":"AFETR"},{"SITE":"AFETR","GP_ID":"193622355","PERIOD":"95.592","TLE_LINE2":"2 45071  53.0542 244.9917 0002092  61.9863 298.1338 15.06403675107818","MEAN_ANOMALY":"298.1338","INCLINATION":"53.0542","MEAN_MOTION_DOT":"0.00000938","PERIAPSIS":"545.754","OBJECT_ID":"2020-006AD","OBJECT_TYPE":"PAYLOAD","REF_FRAME":"TEME","FILE":"3269118","MEAN_MOTION_DDOT":"0.0000000000000","RCS_SIZE":"LARGE","OBJECT_NAME":"STARLINK-1167","TLE_LINE1":"1 45071U 20006AD  22010.84363103  .00000938  00000-0  81853-4 0  9997","BSTAR":"0.00008185300000","CLASSIFICATION_TYPE":"U","ARG_OF_PERICENTER":"61.9863","MEAN_MOTION":"15.06403675","CENTER_NAME":"EARTH","RA_OF_ASC_NODE":"244.9917","TIME_SYSTEM":"UTC","SEMIMAJOR_AXIS":"6925.337","DECAY_DATE":null,"REV_AT_EPOCH":"10781","ECCENTRICITY":"0.00020920","EPHEMERIS_TYPE":"0","NORAD_CAT_ID":"45071","MEAN_ELEMENT_THEORY":"SGP4","APOAPSIS":"548.651","COUNTRY_CODE":"US","ELEMENT_SET_NO":"999","LAUNCH_DATE":"2020-01-29","EPOCH":"2022-01-10T20:14:49.720992"},{"RA_OF_ASC_NODE":"244.9620","MEAN_MOTION":"15.06403517","CENTER_NAME":"EARTH","ARG_OF_PERICENTER":"67.8492","CLASSIFICATION_TYPE":"U","EPOCH":"2022-01-10T20:20:08.408256","LAUNCH_DATE":"2020-01-29","COUNTRY_CODE":"US","APOAPSIS":"548.772","ELEMENT_SET_NO":"999","MEAN_ELEMENT_THEORY":"SGP4","NORAD_CAT_ID":"45072","DECAY_DATE":null,"REV_AT_EPOCH":"10781","SEMIMAJOR_AXIS":"6925.338","ECCENTRICITY":"0.00022660","EPHEMERIS_TYPE":"0","TIME_SYSTEM":"UTC","OBJECT_ID":"2020-006AE","PERIAPSIS":"545.633","MEAN_MOTION_DOT":"0.00001067","INCLINATION":"53.0524","PERIOD":"95.592","TLE_LINE2":"2 45072  53.0524 244.9620 0002266  67.8492 292.2737 15.06403517107819","MEAN_ANOMALY":"292.2737","SITE":"AFETR","GP_ID":"193623104","BSTAR":"0.00009055000000","TLE_LINE1":"1 45072U 20006AE  22010.84731954  .00001067  00000-0  90550-4 0  9999","OBJECT_NAME":"STARLINK-1168","RCS_SIZE":"LARGE","MEAN_MOTION_DDOT":"0.0000000000000","FILE":"3269118","REF_FRAME":"TEME","OBJECT_TYPE":"PAYLOAD"},{"TLE_LINE2":"2 45073  53.0535 244.8458 0002182  62.5046 297.6165 15.06395265107818","PERIOD":"95.592","MEAN_ANOMALY":"297.6165","SITE":"AFETR","GP_ID":"193623356","OBJECT_ID":"2020-006AF","PERIAPSIS":"545.717","INCLINATION":"53.0535","MEAN_MOTION_DOT":"0.00001015","MEAN_MOTION_DDOT":"0.0000000000000","FILE":"3269118","REF_FRAME":"TEME","OBJECT_TYPE":"PAYLOAD","TLE_LINE1":"1 45073U 20006AF  22010.87311633  .00001015  00000-0  87079-4 0  9996","BSTAR":"0.00008707900000","OBJECT_NAME":"STARLINK-1170","RCS_SIZE":"LARGE","CLASSIFICATION_TYPE":"U","RA_OF_ASC_NODE":"244.8458","MEAN_MOTION":"15.06395265","CENTER_NAME":"EARTH","ARG_OF_PERICENTER":"62.5046","MEAN_ELEMENT_THEORY":"SGP4","NORAD_CAT_ID":"45073","REV_AT_EPOCH":"10781","DECAY_DATE":null,"SEMIMAJOR_AXIS":"6925.363","ECCENTRICITY":"0.00021820","EPHEMERIS_TYPE":"0","TIME_SYSTEM":"UTC","EPOCH":"2022-01-10T20:57:17.250912","LAUNCH_DATE":"2020-01-29","COUNTRY_CODE":"US","APOAPSIS":"548.739","ELEMENT_SET_NO":"999"},{"SITE":"AFETR","GP_ID":"193623606","MEAN_ANOMALY":"298.3913","PERIOD":"95.592","TLE_LINE2":"2 45074  53.0544 244.9326 0002453  61.7323 298.3913 15.06401370107818","PERIAPSIS":"545.511","INCLINATION":"53.0544","MEAN_MOTION_DOT":"0.00001106","OBJECT_ID":"2020-006AG","REF_FRAME":"TEME","OBJECT_TYPE":"PAYLOAD","MEAN_MOTION_DDOT":"0.0000000000000","FILE":"3269118","RCS_SIZE":"LARGE","TLE_LINE1":"1 45074U 20006AG  22010.85838584  .00001106  00000-0  93157-4 0  9999","BSTAR":"0.00009315700000","OBJECT_NAME":"STARLINK-1172","CLASSIFICATION_TYPE":"U","ARG_OF_PERICENTER":"61.7323","RA_OF_ASC_NODE":"244.9326","CENTER_NAME":"EARTH","MEAN_MOTION":"15.06401370","EPHEMERIS_TYPE":"0","DECAY_DATE":null,"ECCENTRICITY":"0.00024530","SEMIMAJOR_AXIS":"6925.344","REV_AT_EPOCH":"10781","TIME_SYSTEM":"UTC","NORAD_CAT_ID":"45074","MEAN_ELEMENT_THEORY":"SGP4","LAUNCH_DATE":"2020-01-29","ELEMENT_SET_NO":"999","APOAPSIS":"548.908","COUNTRY_CODE":"US","EPOCH":"2022-01-10T20:36:04.536576"},{"CLASSIFICATION_TYPE":"U","ARG_OF_PERICENTER":"68.2417","RA_OF_ASC_NODE":"245.0758","MEAN_MOTION":"15.06393188","CENTER_NAME":"EARTH","ECCENTRICITY":"0.00022380","DECAY_DATE":null,"SEMIMAJOR_AXIS":"6925.369","REV_AT_EPOCH":"10781","EPHEMERIS_TYPE":"0","TIME_SYSTEM":"UTC","MEAN_ELEMENT_THEORY":"SGP4","NORAD_CAT_ID":"45075","LAUNCH_DATE":"2020-01-29","APOAPSIS":"548.784","COUNTRY_CODE":"US","ELEMENT_SET_NO":"999","EPOCH":"2022-01-10T19:48:17.440704","GP_ID":"193622855","SITE":"AFETR","TLE_LINE2":"2 45075  53.0526 245.0758 0002238  68.2417 291.8810 15.06393188107818","PERIOD":"95.593","MEAN_ANOMALY":"291.8810","PERIAPSIS":"545.685","MEAN_MOTION_DOT":"0.00000370","INCLINATION":"53.0526","OBJECT_ID":"2020-006AH","REF_FRAME":"TEME","OBJECT_TYPE":"PAYLOAD","MEAN_MOTION_DDOT":"0.0000000000000","FILE":"3269118","RCS_SIZE":"LARGE","TLE_LINE1":"1 45075U 20006AH  22010.82520186  .00000370  00000-0  43731-4 0  9998","BSTAR":"0.00004373100000","OBJECT_NAME":"STARLINK-1174"},{"OBJECT_ID":"2020-006AJ","PERIAPSIS":"545.665","INCLINATION":"53.0538","MEAN_MOTION_DOT":"0.00001322","MEAN_ANOMALY":"293.7304","PERIOD":"95.592","TLE_LINE2":"2 45076  53.0538 245.0341 0002245  66.3921 293.7304 15.06397938107813","GP_ID":"193622605","SITE":"AFETR","TLE_LINE1":"1 45076U 20006AJ  22010.83258018  .00001322  00000-0  10765-3 0  9990","BSTAR":"0.00010765000000","OBJECT_NAME":"STARLINK-1180","RCS_SIZE":"LARGE","MEAN_MOTION_DDOT":"0.0000000000000","FILE":"3269118","REF_FRAME":"TEME","OBJECT_TYPE":"PAYLOAD","RA_OF_ASC_NODE":"245.0341","CENTER_NAME":"EARTH","MEAN_MOTION":"15.06397938","ARG_OF_PERICENTER":"66.3921","CLASSIFICATION_TYPE":"U","EPOCH":"2022-01-10T19:58:54.927552","LAUNCH_DATE":"2020-01-29","ELEMENT_SET_NO":"999","COUNTRY_CODE":"US","APOAPSIS":"548.775","MEAN_ELEMENT_THEORY":"SGP4","NORAD_CAT_ID":"45076","EPHEMERIS_TYPE":"0","ECCENTRICITY":"0.00022450","DECAY_DATE":null,"SEMIMAJOR_AXIS":"6925.355","REV_AT_EPOCH":"10781","TIME_SYSTEM":"UTC"},{"ARG_OF_PERICENTER":"39.5408","RA_OF_ASC_NODE":"203.5117","MEAN_MOTION":"15.62863689","CENTER_NAME":"EARTH","CLASSIFICATION_TYPE":"U","LAUNCH_DATE":"2020-01-29","COUNTRY_CODE":"US","APOAPSIS":"380.868","ELEMENT_SET_NO":"999","EPOCH":"2022-01-10T18:28:51.309120","REV_AT_EPOCH":"10839","DECAY_DATE":null,"SEMIMAJOR_AXIS":"6757.527","ECCENTRICITY":"0.00021840","EPHEMERIS_TYPE":"0","TIME_SYSTEM":"UTC","NORAD_CAT_ID":"45077","MEAN_ELEMENT_THEORY":"SGP4","PERIAPSIS":"377.916","INCLINATION":"53.0539","MEAN_MOTION_DOT":"0.00402385","OBJECT_ID":"2020-006AK","GP_ID":"193623856","SITE":"AFETR","TLE_LINE2":"2 45077  53.0539 203.5117 0002184  39.5408 320.5764 15.62863689108395","PERIOD":"92.139","MEAN_ANOMALY":"320.5764","RCS_SIZE":"LARGE","TLE_LINE1":"1 45077U 20006AK  22010.77003830  .00402385  00000-0  41684-2 0  9991","BSTAR":"0.00416840000000","OBJECT_NAME":"STARLINK-1182","REF_FRAME":"TEME","OBJECT_TYPE":"PAYLOAD","MEAN_MOTION_DDOT":"0.0000000000000","FILE":"3269118"},{"ARG_OF_PERICENTER":"73.4366","MEAN_MOTION":"15.06400994","CENTER_NAME":"EARTH","RA_OF_ASC_NODE":"244.9597","CLASSIFICATION_TYPE":"U","APOAPSIS":"548.522","COUNTRY_CODE":"US","ELEMENT_SET_NO":"999","LAUNCH_DATE":"2020-01-29","EPOCH":"2022-01-10T20:25:26.366304","TIME_SYSTEM":"UTC","DECAY_DATE":null,"ECCENTRICITY":"0.00018940","SEMIMAJOR_AXIS":"6925.346","REV_AT_EPOCH":"10780","EPHEMERIS_TYPE":"0","NORAD_CAT_ID":"45078","MEAN_ELEMENT_THEORY":"SGP4","MEAN_MOTION_DOT":"-0.00000034","INCLINATION":"53.0557","PERIAPSIS":"545.899","OBJECT_ID":"2020-006AL","SITE":"AFETR","GP_ID":"193624106","PERIOD":"95.592","TLE_LINE2":"2 45078  53.0557 244.9597 0001894  73.4366 286.6831 15.06400994107800","MEAN_ANOMALY":"286.6831","RCS_SIZE":"LARGE","OBJECT_NAME":"STARLINK-1177","BSTAR":"0.00001663300000","TLE_LINE1":"1 45078U 20006AL  22010.85099961 -.00000034  00000-0  16633-4 0  9995","OBJECT_TYPE":"PAYLOAD","REF_FRAME":"TEME","FILE":"3269118","MEAN_MOTION_DDOT":"0.0000000000000"},{"MEAN_MOTION_DDOT":"0.0000000000000","FILE":"3269118","REF_FRAME":"TEME","OBJECT_TYPE":"PAYLOAD","TLE_LINE1":"1 45079U 20006AM  22010.82889630  .00001086  00000-0  91797-4 0  9994","BSTAR":"0.00009179700000","OBJECT_NAME":"STARLINK-1149","RCS_SIZE":"LARGE","TLE_LINE2":"2 45079  53.0530 245.0507 0002386  63.2884 296.8349 15.06398425107806","PERIOD":"95.592","MEAN_ANOMALY":"296.8349","SITE":"AFETR","GP_ID":"193622356","OBJECT_ID":"2020-006AM","PERIAPSIS":"545.566","INCLINATION":"53.0530","MEAN_MOTION_DOT":"0.00001086","NORAD_CAT_ID":"45079","MEAN_ELEMENT_THEORY":"SGP4","DECAY_DATE":null,"REV_AT_EPOCH":"10780","SEMIMAJOR_AXIS":"6925.353","ECCENTRICITY":"0.00023860","EPHEMERIS_TYPE":"0","TIME_SYSTEM":"UTC","EPOCH":"2022-01-10T19:53:36.640320","LAUNCH_DATE":"2020-01-29","COUNTRY_CODE":"US","APOAPSIS":"548.871","ELEMENT_SET_NO":"999","CLASSIFICATION_TYPE":"U","RA_OF_ASC_NODE":"245.0507","MEAN_MOTION":"15.06398425","CENTER_NAME":"EARTH","ARG_OF_PERICENTER":"63.2884"}];
